[{"OBJECT_NAME":"STARLINK-3173","OBJECT_ID":"2022-005H","EPOCH":"2026-03-09T19:25:36.129216","MEAN_MOTION":15.08843489,"ECCENTRICITY":0.00014684,"INCLINATION":53.2172,"RA_OF_ASC_NODE":288.5853,"ARG_OF_PERICENTER":91.0324,"MEAN_ANOMALY":269.0836,"EPHEMERIS_TYPE":0,"CLASSIFICATION_TYPE":"U","NORAD_CAT_ID":51111,"ELEMENT_SET_NO":999,"REV_AT_EPOCH":22889,"BSTAR":1.3788576e-5,"MEAN_MOTION_DOT":-6.9e-7,"MEAN_MOTION_DDOT":0},{"OBJECT_NAME":"DISKSAT C","OBJECT_ID":"2025-305A","EPOCH":"2026-03-09T19:16:32.318976","MEAN_MOTION":15.07852977,"ECCENTRICITY":0.00045341,"INCLINATION":45.0017,"RA_OF_ASC_NODE":250.1278,"ARG_OF_PERICENTER":310.7706,"MEAN_ANOMALY":49.2776,"EPHEMERIS_TYPE":0,"CLASSIFICATION_TYPE":"U","NORAD_CAT_ID":67219,"ELEMENT_SET_NO":999,"REV_AT_EPOCH":1231,"BSTAR":0.00075564202,"MEAN_MOTION_DOT":0.00011541,"MEAN_MOTION_DDOT":0}]
